{
    "links": {
        "self": "http://www.neowsapp.com/rest/v1/neo/3694048?api_key=iIulBulltgU6a56xZRHN4H3l9WmuAYTsLGpBGhQ2"
    },
    "id": "3694048",
    "neo_reference_id": "3694048",
    "name": "(2014 UT33)",
    "designation": "2014 UT33",
    "nasa_jpl_url": "http://ssd.jpl.nasa.gov/sbdb.cgi?sstr=3694048",
    "absolute_magnitude_h": 23.4,
    "estimated_diameter": {
        "kilometers": {
            "estimated_diameter_min": 0.0555334912,
            "estimated_diameter_max": 0.1241766613
        },
        "meters": {
            "estimated_diameter_min": 55.5334911581,
            "estimated_diameter_max": 124.1766612574
        },
        "miles": {
            "estimated_diameter_min": 0.0345069009,
            "estimated_diameter_max": 0.0771597762
        },
        "feet": {
            "estimated_diameter_min": 182.1964991311,
            "estimated_diameter_max": 407.4037573197
        }
    },
    "is_potentially_hazardous_asteroid": false,
    "close_approach_data": [
        {
            "close_approach_date": "2014-11-08",
            "close_approach_date_full": "2014-Nov-08 04:17",
            "epoch_date_close_approach": 1415420220000,
            "relative_velocity": {
                "kilometers_per_second": "11.6067600992",
                "kilometers_per_hour": "41784.3363570898",
                "miles_per_hour": "25963.1616658817"
            },
            "miss_distance": {
                "astronomical": "0.0398641011",
                "lunar": "15.5071353279",
                "kilometers": "5963584.614024657",
                "miles": "3705599.6482159866"
            },
            "orbiting_body": "Earth"
        },
        {
            "close_approach_date": "2085-10-23",
            "close_approach_date_full": "2085-Oct-23 08:33",
            "epoch_date_close_approach": 3654664380000,
            "relative_velocity": {
                "kilometers_per_second": "19.435432471",
                "kilometers_per_hour": "69967.556895451",
                "miles_per_hour": "43475.1188942873"
            },
            "miss_distance": {
                "astronomical": "0.3008302726",
                "lunar": "117.0229760414",
                "kilometers": "45003568.012479362",
                "miles": "27963920.4587327156"
            },
            "orbiting_body": "Earth"
        }
    ],
    "orbital_data": {
        "orbit_id": "12",
        "orbit_determination_date": "2017-04-06 08:38:02",
        "first_observation_date": "2014-10-22",
        "last_observation_date": "2014-11-07",
        "data_arc_in_days": 16,
        "observations_used": 49,
        "orbit_uncertainty": "8",
        "minimum_orbit_intersection": ".0292614",
        "jupiter_tisserand_invariant": "4.502",
        "epoch_osculation": "2456957.5",
        "eccentricity": ".4237128910646078",
        "semi_major_axis": "1.466133096381295",
        "inclination": "7.568689685963998",
        "ascending_node_longitude": "35.99228339417001",
        "orbital_period": "648.4231673534127",
        "perihelion_distance": ".8449136034280714",
        "perihelion_argument": "73.5405690177852",
        "aphelion_distance": "2.087352589334519",
        "perihelion_time": "2457016.264154432691",
        "mean_anomaly": "327.3745531299955",
        "mean_motion": ".5551929945214121",
        "equinox": "J2000",
        "orbit_class": {
            "orbit_class_type": "APO",
            "orbit_class_description": "Near-Earth asteroid orbits which cross the Earth’s orbit similar to that of 1862 Apollo",
            "orbit_class_range": "a (semi-major axis) > 1.0 AU; q (perihelion) < 1.017 AU"
        }
    },
    "is_sentry_object": false
}